{
  "type": "FeatureCollection",
  "features": [
    {
      "type": "Feature",
      "properties": { "zone": "teaching", "note": "教学区围墙内:学正街(南)-2号大街(北)-25号大街(西)-之江东路(东)" },
      "geometry": {
        "type": "Polygon",
        "coordinates": [[
          [120.3775, 30.3088],
          [120.3918, 30.3088],
          [120.3918, 30.3132],
          [120.3795, 30.3132],
          [120.3775, 30.3130],
          [120.3775, 30.3088]
        ]]
      }
    },
    {
      "type": "Feature",
      "properties": { "zone": "life_qianjiangwan", "note": "钱江湾生活区:2号大街以北,教学区东北对望" },
      "geometry": {
        "type": "Polygon",
        "coordinates": [[
          [120.3835, 30.3135],
          [120.3915, 30.3135],
          [120.3915, 30.3160],
          [120.3835, 30.3160],
          [120.3835, 30.3135]
        ]]
      }
    },
    {
      "type": "Feature",
      "properties": { "zone": "life_jinshagang", "note": "金沙港生活区:清风苑所在东簇" },
      "geometry": {
        "type": "Polygon",
        "coordinates": [[
          [120.3748, 30.3139],
          [120.3772, 30.3139],
          [120.3772, 30.3163],
          [120.3748, 30.3163],
          [120.3748, 30.3139]
        ]]
      }
    },
    {
      "type": "Feature",
      "properties": { "zone": "life_yupingzhou", "note": "玉屏洲生活区:明月苑所在西簇" },
      "geometry": {
        "type": "Polygon",
        "coordinates": [[
          [120.3728, 30.3140],
          [120.3748, 30.3140],
          [120.3748, 30.3163],
          [120.3728, 30.3163],
          [120.3728, 30.3140]
        ]]
      }
    }
  ]
}
